NORAD_CAT_ID,OBJECT_NAME,OBJECT_TYPE,EPOCH,MEAN_MOTION,ECCENTRICITY,INCLINATION,RA_OF_ASC_NODE,ARG_OF_PERICENTER,MEAN_ANOMALY,BSTAR,MEAN_MOTION_DOT,MEAN_MOTION_DDOT,TLE_LINE0,TLE_LINE1,TLE_LINE2,SEMIMAJOR_AXIS,PERIOD,APOGEE,PERIGEE,DECAYED
50849.0,STARLINK-3311,PAYLOAD,2022-11-12 11:33:44,15.08853246,0.0002273,53.2164,225.4356,33.7365,326.3772,0.00071418,0.00011101,0.0,0 STARLINK-3311,1 50849U 22001AY  22316.48176047  .00011101  00000-0  71418-3 0  9990,2 50849  53.2164 225.4356 0002273  33.7365 326.3772 15.08853246 48315,6917.84,95.437,541.2769999999998,538.132,0.0
50849.0,STARLINK-3311,PAYLOAD,2022-11-12 17:55:16,15.08858731,0.0002289,53.2164,224.2461,34.7838,325.3304,0.00070983,0.00011033,0.0,0 STARLINK-3311,1 50849U 22001AY  22316.74671753  .00011033  00000-0  70983-3 0  9993,2 50849  53.2164 224.2461 0002289  34.7838 325.3304 15.08858731 47157,6917.823,95.436,541.2719999999998,538.105,0.0
50849.0,STARLINK-3311,PAYLOAD,2022-11-13 00:16:48,15.08857355,0.0002327,53.2162,223.0565,34.6912,325.4231,0.00049649,7.626e-05,0.0,0 STARLINK-3311,1 50849U 22001AY  22317.01167548  .00007626  00000-0  49649-3 0  9994,2 50849  53.2162 223.0565 0002327  34.6912 325.4231 15.08857355 48390,6917.8269999999975,95.436,541.302,538.0830000000002,0.0
50849.0,STARLINK-3311,PAYLOAD,2022-11-14 00:07:36,15.08835946,0.0002504,53.216,218.5967,33.3213,326.7936,8.9375e-05,1.134e-05,0.0,0 STARLINK-3311,1 50849U 22001AY  22318.00528563  .00001134  00000-0  89375-4 0  9991,2 50849  53.2160 218.5967 0002504  33.3213 326.7936 15.08835946 48545,6917.893,95.438,541.49,538.026,0.0
50849.0,STARLINK-3311,PAYLOAD,2022-11-14 23:58:24,15.08845388,0.0002283,53.2166,214.137,40.7493,319.367,0.00073653,0.00011455,0.0,0 STARLINK-3311,1 50849U 22001AY  22318.99889059  .00011455  00000-0  73653-3 0  9997,2 50849  53.2166 214.1370 0002283  40.7493 319.3670 15.08845388 47494,6917.864000000001,95.437,541.308,538.15,0.0
50849.0,STARLINK-3311,PAYLOAD,2022-11-15 20:38:24,15.08846571,0.000208,53.2166,210.2719,54.8494,305.2693,0.00014337,1.995e-05,0.0,0 STARLINK-3311,1 50849U 22001AY  22319.86000929  .00001995  00000-0  14337-3 0  9997,2 50849  53.2166 210.2719 0002080  54.8494 305.2693 15.08846571 48822,6917.86,95.437,541.164,538.286,0.0
50849.0,STARLINK-3311,PAYLOAD,2022-11-15 23:49:11,15.08836151,0.0002153,53.217,209.6782,47.5629,312.5545,2.7341e-05,1.47e-06,0.0,0 STARLINK-3311,1 50849U 22001AY  22319.99249245  .00000147  00000-0  27341-4 0  9995,2 50849  53.2170 209.6782 0002153  47.5629 312.5545 15.08836151 48841,6917.892,95.438,541.247,538.268,0.0
50849.0,STARLINK-3311,PAYLOAD,2022-11-16 09:21:30,15.08836082,0.0002203,53.217,207.8941,47.3041,312.8136,2.4841e-05,1.07e-06,0.0,0 STARLINK-3311,1 50849U 22001AY  22320.38993346  .00000107  00000-0  24841-4 0  9996,2 50849  53.2170 207.8941 0002203  47.3041 312.8136 15.08836082 47706,6917.892,95.438,541.281,538.2330000000002,0.0
50849.0,STARLINK-3311,PAYLOAD,2022-11-16 18:53:49,15.08824662,0.0002166,53.2159,206.1061,49.9132,310.205,0.00021946,3.205e-05,0.0,0 STARLINK-3311,1 50849U 22001AY  22320.78738017  .00003205  00000-0  21946-3 0  9996,2 50849  53.2159 206.1061 0002166  49.9132 310.2050 15.08824662 48962,6917.927,95.439,541.2909999999998,538.294,0.0
50849.0,STARLINK-3311,PAYLOAD,2022-11-17 04:26:08,15.08828023,0.0002247,53.2171,204.3234,45.5452,314.5724,0.00014944,2.09e-05,0.0,0 STARLINK-3311,1 50849U 22001AY  22321.18482285  .00002090  00000-0  14944-3 0  9995,2 50849  53.2171 204.3234 0002247  45.5452 314.5724 15.08828023 47829,6917.917,95.438,541.336,538.2280000000002,0.0
50849.0,STARLINK-3311,PAYLOAD,2022-11-17 20:19:59,15.08841174,0.0002365,53.217,201.3499,37.2417,322.8739,0.00013421,1.848e-05,0.0,0 STARLINK-3311,1 50849U 22001AY  22321.84721398  .00001848  00000-0  13421-3 0  9998,2 50849  53.2170 201.3499 0002365  37.2417 322.8739 15.08841174 47929,6917.877,95.437,541.378,538.106,0.0
50849.0,STARLINK-3311,PAYLOAD,2022-11-18 01:06:08,15.08844746,0.0002416,53.2172,200.4577,37.7254,322.3907,0.00016102,2.276e-05,0.0,0 STARLINK-3311,1 50849U 22001AY  22322.04593128  .00002276  00000-0  16102-3 0  9994,2 50849  53.2172 200.4577 0002416  37.7254 322.3907 15.08844746 49156,6917.866,95.437,541.4019999999998,538.06,0.0
50849.0,STARLINK-3311,PAYLOAD,2022-11-18 09:03:04,15.08835983,0.0002374,53.2171,198.9701,38.6664,321.4498,9.4975e-05,1.223e-05,0.0,0 STARLINK-3311,1 50849U 22001AY  22322.37713875  .00001223  00000-0  94975-4 0  9999,2 50849  53.2171 198.9701 0002374  38.6664 321.4498 15.08835983 49207,6917.893,95.438,541.4,538.115,0.0
50849.0,STARLINK-3311,PAYLOAD,2022-11-19 00:56:55,15.08842035,0.0002439,53.2173,195.9973,40.3199,319.7974,0.00014317,1.991e-05,0.0,0 STARLINK-3311,1 50849U 22001AY  22323.03953609  .00001991  00000-0  14317-3 0  9997,2 50849  53.2173 195.9973 0002439  40.3199 319.7974 15.08842035 48105,6917.874,95.437,541.4259999999998,538.052,0.0
50849.0,STARLINK-3311,PAYLOAD,2022-11-19 21:36:55,15.08852164,0.0002385,53.2172,192.131,40.5367,319.5803,6.594600000000001e-05,7.62e-06,0.0,0 STARLINK-3311,1 50849U 22001AY  22323.90064789  .00000762  00000-0  65946-4 0  9995,2 50849  53.2172 192.1310 0002385  40.5367 319.5803 15.08852164 48234,6917.843000000003,95.437,541.3580000000002,538.058,0.0
50849.0,STARLINK-3311,PAYLOAD,2022-11-20 08:44:37,15.08849987,0.0002397,53.2172,190.0496,39.2409,320.8756,5.4487e-05,5.79e-06,0.0,0 STARLINK-3311,1 50849U 22001AY  22324.36432830  .00000579  00000-0  54487-4 0  9996,2 50849  53.2172 190.0496 0002397  39.2409 320.8756 15.08849987 49503,6917.85,95.437,541.373,538.057,0.0
50849.0,STARLINK-3311,PAYLOAD,2022-11-20 21:27:43,15.08836723,0.0002313,53.2171,187.671,40.014,320.1022,2.5584e-05,1.19e-06,0.0,0 STARLINK-3311,1 50849U 22001AY  22324.89425635  .00000119  00000-0  25584-4 0  9995,2 50849  53.2171 187.6710 0002313  40.0140 320.1022 15.08836723 48381,6917.89,95.438,541.356,538.155,0.0
50849.0,STARLINK-3311,PAYLOAD,2022-11-21 02:13:53,15.08839198,0.0002326,53.2169,186.779,39.3142,320.8018,-1.6449e-05,-5.5e-06,0.0,0 STARLINK-3311,1 50849U 22001AY  22325.09297547 -.00000550  00000-0 -16449-4 0  9998,2 50849  53.2169 186.7790 0002326  39.3142 320.8018 15.08839198 49611,6917.8830000000025,95.438,541.357,538.139,0.0
50849.0,STARLINK-3311,PAYLOAD,2022-11-21 19:43:07,15.08844472,0.0002388,53.2168,183.5084,38.8979,321.2184,6.676699999999999e-05,7.75e-06,0.0,0 STARLINK-3311,1 50849U 22001AY  22325.82160894  .00000775  00000-0  66767-4 0  9998,2 50849  53.2168 183.5084 0002388  38.8979 321.2184 15.08844472 48520,6917.8669999999975,95.437,541.384,538.08,0.0
50849.0,STARLINK-3311,PAYLOAD,2022-11-21 21:18:30,15.08845147,0.0002394,53.2168,183.2111,39.1574,320.9591,7.2022e-05,8.58e-06,0.0,0 STARLINK-3311,1 50849U 22001AY  22325.88784820  .00000858  00000-0  72022-4 0  9998,2 50849  53.2168 183.2111 0002394  39.1574 320.9591 15.08845147 49732,6917.865,95.437,541.386,538.0740000000002,0.0
50849.0,STARLINK-3311,PAYLOAD,2022-11-22 21:09:17,15.08833399,0.0002469,53.2167,178.75099999999995,38.724,321.3928,6.2517e-05,7.07e-06,0.0,0 STARLINK-3311,1 50849U 22001AY  22326.88145473  .00000707  00000-0  62517-4 0  9995,2 50849  53.2167 178.7510 0002469  38.7240 321.3928 15.08833399 48689,6917.901,95.438,541.474,538.058,0.0
50849.0,STARLINK-3311,PAYLOAD,2022-11-22 22:44:40,15.08832572,0.0002477,53.2167,178.4538,38.831,321.2859,5.3876e-05,5.69e-06,0.0,0 STARLINK-3311,1 50849U 22001AY  22326.94769578  .00000569  00000-0  53876-4 0  9994,2 50849  53.2167 178.4538 0002477  38.8310 321.2859 15.08832572 49892,6917.903,95.438,541.482,538.055,0.0
50849.0,STARLINK-3311,PAYLOAD,2022-11-23 13:03:09,15.08837793,0.0002476,53.2168,175.7772,40.2375,319.88,5.7193e-05,6.22e-06,0.0,0 STARLINK-3311,1 50849U 22001AY  22327.54385426  .00000622  00000-0  57193-4 0  9993,2 50849  53.2168 175.7772 0002476  40.2375 319.8800 15.08837793 48786,6917.887,95.438,541.465,538.039,0.0
50849.0,STARLINK-3311,PAYLOAD,2022-11-23 19:24:41,15.08841592,0.0002362,53.217,174.5877,43.1584,316.9593,1.9562e-05,2.3e-07,0.0,0 STARLINK-3311,1 50849U 22001AY  22327.80881224  .00000023  00000-0  19562-4 0  9992,2 50849  53.2170 174.5877 0002362  43.1584 316.9593 15.08841592 50029,6917.876,95.437,541.375,538.107,0.0
50849.0,STARLINK-3311,PAYLOAD,2022-11-24 06:32:23,15.08843053,0.0002341,53.217,172.50599999999997,44.1933,315.9246,5.0132e-05,5.1e-06,0.0,0 STARLINK-3311,1 50849U 22001AY  22328.27249010  .00000510  00000-0  50132-4 0  9994,2 50849  53.2170 172.5060 0002341  44.1933 315.9246 15.08843053 48897,6917.871,95.437,541.356,538.117,0.0
50849.0,STARLINK-3311,PAYLOAD,2022-11-24 17:40:05,15.08832406,0.0002132,53.2173,170.42700000000005,55.0052,305.1140000000001,4.492e-05,4.27e-06,0.0,0 STARLINK-3311,1 50849U 22001AY  22328.73617696  .00000427  00000-0  44920-4 0  9999,2 50849  53.2173 170.4270 0002132  55.0052 305.1140 15.08832406 48963,6917.904,95.438,541.243,538.294,0.0
50849.0,STARLINK-3311,PAYLOAD,2022-11-24 22:26:15,15.08828201,0.0002295,53.2175,169.5326,49.3368,310.7824,8.1749e-06,-1.58e-06,0.0,0 STARLINK-3311,1 50849U 22001AY  22328.93490207 -.00000158  00000-0  81749-5 0  9991,2 50849  53.2175 169.5326 0002295  49.3368 310.7824 15.08828201 50199,6917.916,95.438,541.369,538.194,0.0
50849.0,STARLINK-3311,PAYLOAD,2022-11-25 06:23:11,15.08828674,0.0002445,53.2169,168.0458,43.2975,316.8209,-1.4217e-06,-3.11e-06,0.0,0 STARLINK-3311,1 50849U 22001AY  22329.26610425 -.00000311  00000-0 -14217-5 0  9992,2 50849  53.2169 168.0458 0002445  43.2975 316.8209 15.08828674 49046,6917.915,95.438,541.471,538.089,0.0
50849.0,STARLINK-3311,PAYLOAD,2022-11-25 17:30:53,15.08845129,0.0002579,53.217,165.96400000000003,38.8452,321.2725,-0.00015243,-2.714e-05,0.0,0 STARLINK-3311,1 50849U 22001AY  22329.72978192 -.00002714  00000-0 -15243-3 0  9998,2 50849  53.2170 165.9640 0002579  38.8452 321.2725 15.08845129 50314,6917.865,95.437,541.514,537.946,0.0
